[{"OBJECT_NAME":"TIANPING-3A 02","OBJECT_ID":"2025-068A","EPOCH":"2026-03-09T20:54:34.712640","MEAN_MOTION":14.85842181,"ECCENTRICITY":0.02320093,"INCLINATION":43.0011,"RA_OF_ASC_NODE":213.5906,"ARG_OF_PERICENTER":358.6421,"MEAN_ANOMALY":1.3764,"EPHEMERIS_TYPE":0,"CLASSIFICATION_TYPE":"U","NORAD_CAT_ID":63432,"ELEMENT_SET_NO":999,"REV_AT_EPOCH":5060,"BSTAR":0.00038259976,"MEAN_MOTION_DOT":5.293e-5,"MEAN_MOTION_DDOT":0},{"OBJECT_NAME":"STARLINK-34361","OBJECT_ID":"2025-130N","EPOCH":"2026-03-09T10:26:50.063424","MEAN_MOTION":15.3021918,"ECCENTRICITY":9.235e-5,"INCLINATION":53.16,"RA_OF_ASC_NODE":89.7525,"ARG_OF_PERICENTER":79.2623,"MEAN_ANOMALY":280.8482,"EPHEMERIS_TYPE":0,"CLASSIFICATION_TYPE":"U","NORAD_CAT_ID":64450,"ELEMENT_SET_NO":999,"REV_AT_EPOCH":4183,"BSTAR":0.00079881741,"MEAN_MOTION_DOT":0.00023388,"MEAN_MOTION_DDOT":0}]
